TDRS 9                  
1 27389U 02011A   18331.21208341 -.00000101  00000-0  00000+0 0  9992
2 27389   6.3273  73.1164 0020909 248.5090 168.5954  1.00273114 62771
JCSAT 2A                
1 27399U 02015A   18331.46448841 -.00000326  00000-0  00000+0 0  9994
2 27399   1.6184  89.3311 0004543 158.8354 114.9650  1.00399198 60953
ASTRA 3A                
1 27400U 02015B   18330.13339838 -.00000278  00000-0  00000+0 0  9991
2 27400   4.8162  66.3002 0003279 183.7851 175.9679  1.00268678 61040
INTELSAT 903 (IS-903)   
1 27403U 02016A   18331.13938201 -.00000223  00000-0  00000+0 0  9995
2 27403   0.9860  93.0084 0000934 161.0181 190.6780  1.00270845 60980
NSS-7                   
1 27414U 02019A   18330.09674545 -.00000152  00000-0  00000-0 0  9994
2 27414   2.9977  80.1895 0002416 167.5578 192.0721  1.00270936 60890
DIRECTV 5 (TEMPO 1)     
1 27426U 02023A   18330.12525143 -.00000050  00000-0  00000+0 0  9991
2 27426   0.0215 303.7102 0003326 306.6371 109.6168  1.00264915 60631
INTELSAT 905 (IS-905)   
1 27438U 02027A   18331.49077137 -.00000184  00000-0  00000+0 0  9992
2 27438   0.0034 195.6528 0002371  30.0494 352.8616  1.00271652 60306
EXPRESS-A4              
1 27441U 02029A   18331.53942413 -.00000250  00000-0  00000+0 0  9995
2 27441   6.9283  53.3277 0009531 102.5216 250.0090  1.00265450 60308
GALAXY 3C (G-3C)        
1 27445U 02030A   18331.08076465 -.00000149  00000-0  00000+0 0  9993
2 27445   0.0140 314.3415 0001968   4.2544  41.4158  1.00268749 60290
EUTELSAT 5 WEST A       
1 27460U 02035A   18330.83129297 -.00000040  00000-0  00000-0 0  9990
2 27460   0.0516  39.3375 0005340 211.8790 108.7527  1.00270669 59952
N-STAR C                
1 27461U 02035B   18330.67607066 -.00000309  00000-0  00000+0 0  9995
2 27461   5.5988  61.9506 0000991   0.5897  22.4303  1.00271197 59996
EUTELSAT 36 WEST A      
1 27508U 02040A   18331.14203824  .00000010  00000-0  00000+0 0  9998
2 27508   0.4062  87.7481 0005314 237.7572  34.4864  0.98291882 59580
METEOSAT-8 (MSG-1)      
1 27509U 02040B   18330.85861982  .00000141  00000-0  00000+0 0  9996
2 27509   5.7451  56.3547 0001462 260.8743  98.9207  1.00272748 59583
INTELSAT 906 (IS-906)   
1 27513U 02041A   18331.45149025  .00000014  00000-0  00000+0 0  9995
2 27513   0.0188 283.8430 0002137 322.5537  46.6204  1.00272461 59307
KALPANA-1 (METSAT 1)    
1 27525U 02043A   18330.57451910 -.00000203  00000-0  00000-0 0  9993
2 27525   8.5527  51.5820 0001862  69.5642 290.3427  0.98340106 59350
HISPASAT 1D             
1 27528U 02044A   18330.84186876 -.00000214  00000-0  00000+0 0  9994
2 27528   0.0256   6.0808 0005006 262.5108  70.2114  1.00270004 59289
TDRS 10                 
1 27566U 02055A   18330.44940661  .00000095  00000-0  00000+0 0  9990
2 27566   5.9338  56.1140 0008351 232.7905 126.9483  1.00272276 58551
NSS-6                   
1 27603U 02057A   18330.88332252 -.00000268  00000-0  00000-0 0  9997
2 27603   0.0496 108.9307 0003124 150.9520 218.8944  1.00271258 58431
NIMIQ 2                 
1 27632U 02062A   18330.13590044 -.00000261  00000-0  00000+0 0  9990
2 27632   3.1029  79.3895 0007980 162.8487 196.8109  0.99913561 58200
INTELSAT 907 (IS-907)   
1 27683U 03007A   18329.89636808 -.00000197  00000-0  00000+0 0  9994
2 27683   0.0168 248.1086 0002897 359.6441 112.2472  1.00270488 57719
GALAXY 12 (G-12)        
1 27715U 03013B   18331.12541323  .00000060  00000-0  00000+0 0  9991
2 27715   0.1859  96.5704 0003123 168.7084  76.8827  1.00272183 57342
ASIASAT 4               
1 27718U 03014A   18331.13675140  .00000155  00000-0  00000+0 0  9996
2 27718   0.0096  96.2013 0000523  83.6204 333.6371  1.00270587 57251
HELLAS-SAT 2            
1 27811U 03020A   18330.89468124  .00000154  00000-0  00000-0 0  9991
2 27811   0.6031  99.9604 0007986 147.9041 179.0007  1.00271324 15183
THURAYA-2               
1 27825U 03026A   18331.29493681  .00000129  00000-0  00000+0 0  9994
2 27825   5.3835  31.0903 0004633 208.1221 337.1284  1.00271169 56677
OPTUS C1                
1 27831U 03028B   18330.89536110 -.00000148  00000-0  00000-0 0  9996
2 27831   0.1102 116.1018 0004574 128.5654 299.1632  1.00270465 25392
ECHOSTAR 12 (RAINBOW 1) 
1 27852U 03033A   18331.19826074 -.00000198  00000-0  00000+0 0  9994
2 27852   0.0101   1.1097 0002002 218.3596 191.5968  1.00272259 56293
GALAXY 23 (G-23)        
1 27854U 03034A   18330.74179156  .00000016  00000-0  00000+0 0  9997
2 27854   0.0214 292.8799 0003066 317.8770 320.9308  1.00270177 60870
GALAXY 13 (HORIZONS-1)  
1 27954U 03044A   18330.62364181  .00000051  00000-0  00000-0 0  9990
2 27954   0.0239 103.3495 0000612 269.1759 150.4925  1.00272263 18914
YAMAL 202               
1 28089U 03053A   18330.76646557  .00000122  00000-0  00000-0 0  9994
2 28089   0.0420  94.9982 0004609 157.4594 138.1460  1.00274792 55016
EXPRESS-AM22 (SESAT 2)  
1 28134U 03060A   18331.16718815 -.00000136  00000-0  00000+0 0  9990
2 28134   1.5829  88.8320 0000367 189.3206 288.2080  1.00271286 54609
AMC-10 (GE-10)          
1 28154U 04003A   18331.48350587  .00000088  00000-0  00000+0 0  9998
2 28154   0.0087 340.7181 0000897 227.4639 257.2425  1.00270025 54270
ABS-4 (MOBISAT-1)       
1 28184U 04007A   18331.45087962  .00000041  00000-0  00000+0 0  9995
2 28184   0.0177 313.5105 0002573 304.8093  31.3346  1.00271427 53914
EUTELSAT 7A             
1 28187U 04008A   18331.15288144  .00000049  00000-0  00000+0 0  9999
2 28187   0.0686  19.0163 0005359 215.0727 253.9750  1.00271586 53913
DIRECTV 7S              
1 28238U 04016A   18331.14186532  .00000002  00000-0  00000+0 0  9991
2 28238   0.0470  94.2596 0003275 160.3981 103.3725  1.00271147 53390
AMC-11 (GE-11)          
1 28252U 04017A   18331.56315494  .00000069  00000-0  00000+0 0  9998
2 28252   0.0200 325.0710 0002873 287.3919 245.7099  1.00271883 53048
INTELSAT 10-02          
1 28358U 04022A   18331.21255583 -.00000010  00000-0  00000+0 0  9992
2 28358   0.0500 108.7427 0000744 203.5672 189.3352  1.00271563 52960
APSTAR 5 (TELSTAR 18)   
1 28364U 04024A   18331.02063314 -.00000292  00000-0  00000+0 0  9991
2 28364   0.1107 103.3967 0002556 127.8729 340.0646  1.00270787 52885
ANIK F2                 
1 28378U 04027A   18331.50088104 -.00000050  00000-0  00000+0 0  9998
2 28378   0.0100 316.4676 0000490 339.7100 199.4536  1.00271033 52696
AMC-15                  
1 28446U 04041A   18331.55930483 -.00000089  00000-0  00000+0 0  9993
2 28446   0.0521  80.7070 0002908 168.2865 273.7500  1.00272074 51712
AMC-16                  
1 28472U 04048A   18330.84738128 -.00000204  00000-0  00000-0 0  9992
2 28472   0.0318  56.5054 0002828 195.2238  34.0757  1.00270889 51076
NSS-10 (AMC-12)         
1 28526U 05003A   18331.43116427 -.00000250  00000-0  00000+0 0  9992
2 28526   0.0110   6.3045 0003118 249.8428 287.9328  1.00271559 50650
XTAR-EUR                
1 28542U 05005A   18330.73711905  .00000154  00000-0  00000-0 0  9999
2 28542   0.0438 104.6039 0003141 148.1890 107.2002  1.00272352 50516
XM-3 (RHYTHM)           
1 28626U 05008A   18331.06276704 -.00000204  00000-0  00000+0 0  9991
2 28626   0.0073  66.3050 0000276 336.1975 320.9529  1.00272626 50400
INMARSAT 4-F1           
1 28628U 05009A   18331.47021217 -.00000261  00000-0  00000+0 0  9999
2 28628   2.9447  19.4662 0003098 236.1251 123.5365  1.00271282 50016
APSTAR 6                
1 28638U 05012A   18330.89099929 -.00000317  00000-0  00000-0 0  9997
2 28638   0.3811  96.6675 0002916 153.0081 270.6594  1.00268778 74741
SPACEWAY 1              
1 28644U 05015A   18331.51583565  .00000104  00000-0  00000+0 0  9993
2 28644   0.0614 125.7922 0000425 175.1042 172.3095  1.00269283 49850
DIRECTV 8               
1 28659U 05019A   18330.09929784 -.00000111  00000-0  00000+0 0  9991
2 28659   0.0158 350.9674 0003216 249.9280 119.1024  1.00271545 49518
GALAXY 28 (G-28)        
1 28702U 05022A   18330.84659615 -.00000183  00000-0  00000-0 0  9990
2 28702   0.0121 344.2821 0000416  18.2889 278.9463  1.00269673 24443
EXPRESS-AM3             
1 28707U 05023A   18331.10001683 -.00000320  00000-0  00000+0 0  9994
2 28707   0.5276  93.8413 0001575  93.8161  17.3364  1.00269125 49171
THAICOM 4               
1 28786U 05028A   18331.03179826 -.00000361  00000-0  00000+0 0  9998
2 28786   0.0172 340.5075 0002445 268.7051 307.6611  1.00272408 48652
GALAXY 14 (G-14)        
1 28790U 05030A   18331.18557538  .00000038  00000-0  00000+0 0  9992
2 28790   0.0103 309.3331 0002661 297.3674 121.1781  1.00271601 48648
ANIK F1R                
1 28868U 05036A   18331.55757462 -.00000075  00000-0  00000+0 0  9995
2 28868   0.0413  74.3500 0001196 215.2311 230.2924  1.00271261 48490
GALAXY 15 (G-15)        
1 28884U 05041A   18331.53610304  .00000078  00000-0  00000+0 0  9992
2 28884   0.0068 358.9324 0001689 246.6384 240.8392  1.00272650 47964
SYRACUSE 3A             
1 28885U 05041B   18331.44800083  .00000129  00000-0  00000+0 0  9995
2 28885   0.0214 306.7709 0002344 296.7147  31.1206  1.00275199 48066
INMARSAT 4-F2           
1 28899U 05044A   18331.69738525  .00000010  00000-0  00000+0 0  9990
2 28899   2.7432  21.8826 0003353 237.4431 122.1858  1.00271025 47849
TELKOM 2                
1 28902U 05046A   18331.18280339 -.00000137  00000-0  00000+0 0  9997
2 28902   0.0054  88.3933 0001406   9.2125 191.2884  1.00272050 47579
SPACEWAY 2              
1 28903U 05046B   18331.18744904 -.00000126  00000-0  00000+0 0  9999
2 28903   0.0421 130.2732 0000285 164.2593  99.9590  1.00270960 47832
INSAT-4A                
1 28911U 05049A   18331.58459536 -.00000166  00000-0  00000+0 0  9993
2 28911   0.0172 277.7376 0006420 344.2528  97.9611  1.00270863 47430
METEOSAT-9 (MSG-2)      
1 28912U 05049B   18331.72654535  .00000021  00000-0  00000+0 0  9995
2 28912   3.2511  71.5373 0000910 335.7569 284.4436  1.00278853 47411
